     3.04           N: GNSS NAV DATA    C: BDS              RINEX VERSION / TYPE
cnvtToRINEX 3.14.0  convertToRINEX OPR  20250615 162930 UTC PGM / RUN BY / DATE 
----------------------------------------------------------- COMMENT             
BDSA   0.2980D-07 -0.8941D-07 -0.1192D-06  0.4172D-06       IONOSPHERIC CORR    
BDSB   0.1147D+06  0.3277D+05  0.1049D+07 -0.1114D+07       IONOSPHERIC CORR    
BDUT -0.372529029846D-08-0.195399252334D-13     14 1015     TIME SYSTEM CORR    
     4                                                      LEAP SECONDS        
                                                            END OF HEADER       
C12 2025 06 15 12 00 00-0.366667518392D-04 0.170627956209D-10 0.447233396150D-18
     0.120000000000D+02 0.116515625000D+03 0.349193116724D-08 0.299090959861D+01
     0.590225681663D-05 0.962481251918D-03 0.862032175064D-05 0.528262622452D+04
     0.432000000000D+05 0.870786607265D-07 0.923595146737D+00-0.363215804100D-07
     0.976909101237D+00 0.193984375000D+03-0.158900412559D+01-0.656598778546D-08
    -0.143220251413D-09 0.100000000000D+01 0.101500000000D+04 0.000000000000D+00
     0.200000000000D+01 0.000000000000D+00 0.330000005100D-08 0.000000000000D+00
     0.432000000000D+05 0.110000000000D+02 0.000000000000D+00 0.000000000000D+00
C19 2025 06 15 12 00 00-0.948786735535D-03 0.244337883260D-11 0.000000000000D+00
     0.100000000000D+01-0.116171875000D+03 0.320156192933D-08 0.180781413005D+01
    -0.567734241486D-05 0.912532443181D-03 0.477489084005D-05 0.528263451195D+04
     0.432000000000D+05-0.637955963612D-07 0.299657431439D+01 0.279396772385D-08
     0.984176246274D+00 0.277281250000D+03-0.556688955095D+00-0.662920470441D-08
    -0.193936649668D-09 0.100000000000D+01 0.101500000000D+04 0.000000000000D+00
     0.200000000000D+01 0.000000000000D+00 0.102999999640D-07 0.103000000000D-07
     0.432000000000D+05 0.100000000000D+01 0.000000000000D+00 0.000000000000D+00
C22 2025 06 15 12 00 00 0.339105608873D-03 0.665600907723D-11 0.000000000000D+00
     0.100000000000D+01-0.116125000000D+03 0.325584990493D-08 0.274716851060D-02
    -0.577466562390D-05 0.790873542428D-03 0.473810359836D-05 0.528263555908D+04
     0.432000000000D+05-0.349245965481D-07 0.299791070907D+01 0.123400241137D-06
     0.983457485363D+00 0.275687500000D+03 0.452054271978D+00-0.665849163862D-08
    -0.232866842696D-09 0.100000000000D+01 0.101500000000D+04 0.000000000000D+00
     0.200000000000D+01 0.000000000000D+00 0.140000002702D-07 0.140000000000D-07
     0.432000000000D+05 0.100000000000D+01 0.000000000000D+00 0.000000000000D+00
C21 2025 06 15 12 00 00-0.926877371967D-03-0.454392079519D-11 0.000000000000D+00
     0.100000000000D+01-0.124765625000D+03 0.335085386223D-08-0.941998610823D-01
    -0.629387795925D-05 0.774613232352D-03 0.502541661263D-05 0.528263321304D+04
     0.432000000000D+05 0.828877091408D-07 0.299798388131D+01-0.614672899246D-07
     0.983447884232D+00 0.269421875000D+03-0.230729344563D+00-0.668777857282D-08
    -0.253581991279D-09 0.100000000000D+01 0.101500000000D+04 0.000000000000D+00
     0.200000000000D+01 0.000000000000D+00 0.115000000633D-07 0.115000000000D-07
     0.443700000000D+05 0.100000000000D+01 0.000000000000D+00 0.000000000000D+00
C21 2025 06 15 13 00 00-0.926893204451D-03-0.449862369578D-11 0.000000000000D+00
     0.100000000000D+01-0.122546875000D+03 0.339192700166D-08 0.392929210416D+00
    -0.616814941168D-05 0.775377731770D-03 0.469619408250D-05 0.528263484573D+04
     0.468000000000D+05-0.377185642719D-07 0.299795969635D+01-0.214204192162D-07
     0.983446514941D+00 0.275046875000D+03-0.230295308473D+00-0.677992526824D-08
    -0.263225250103D-09 0.100000000000D+01 0.101500000000D+04 0.000000000000D+00
     0.200000000000D+01 0.000000000000D+00 0.115000000633D-07 0.115000000000D-07
     0.468000000000D+05 0.100000000000D+01 0.000000000000D+00 0.000000000000D+00
C12 2025 06 15 13 00 00-0.366052845493D-04 0.170663483345D-10 0.447233396150D-18
     0.130000000000D+02 0.113546875000D+03 0.348907390536D-08-0.280446827757D+01
     0.568712130189D-05 0.962026300840D-03 0.884849578142D-05 0.528262722397D+04
     0.468000000000D+05-0.325962901115D-07 0.923570835964D+00 0.866129994392D-07
     0.976908745748D+00 0.191687500000D+03-0.158924561679D+01-0.652777190790D-08
    -0.242867259253D-10 0.100000000000D+01 0.101500000000D+04 0.000000000000D+00
     0.200000000000D+01 0.000000000000D+00 0.330000005100D-08 0.000000000000D+00
     0.468000000000D+05 0.120000000000D+02 0.000000000000D+00 0.000000000000D+00
C22 2025 06 15 13 00 00 0.339130288921D-03 0.671818156661D-11 0.000000000000D+00
     0.100000000000D+01-0.112250000000D+03 0.327442210711D-08 0.490070448236D+00
    -0.554509460926D-05 0.791371683590D-03 0.475905835629D-05 0.528263660240D+04
     0.468000000000D+05-0.311993062496D-07 0.299788650948D+01 0.149011611938D-07
     0.983456612001D+00 0.275468750000D+03 0.452293062633D+00-0.669992193578D-08
    -0.227152318949D-09 0.100000000000D+01 0.101500000000D+04 0.000000000000D+00
     0.200000000000D+01 0.000000000000D+00 0.140000002702D-07 0.140000000000D-07
     0.468000000000D+05 0.100000000000D+01 0.000000000000D+00 0.000000000000D+00
C19 2025 06 15 13 00 00-0.948778586462D-03 0.238564723531D-11 0.000000000000D+00
     0.100000000000D+01-0.114265625000D+03 0.326585032149D-08 0.229618074393D+01
    -0.562332570553D-05 0.913140480407D-03 0.456627458334D-05 0.528263266373D+04
     0.468000000000D+05-0.209547579288D-07 0.299655083894D+01-0.819563865662D-07
     0.984175506037D+00 0.284171875000D+03-0.557493611241D+00-0.664206238284D-08
    -0.262510934634D-09 0.100000000000D+01 0.101500000000D+04 0.000000000000D+00
     0.200000000000D+01 0.000000000000D+00 0.102999999640D-07 0.103000000000D-07
     0.468000000000D+05 0.100000000000D+01 0.000000000000D+00 0.000000000000D+00
